{
    "links": {
        "self": "http://www.neowsapp.com/rest/v1/neo/3785753?api_key=iIulBulltgU6a56xZRHN4H3l9WmuAYTsLGpBGhQ2"
    },
    "id": "3785753",
    "neo_reference_id": "3785753",
    "name": "(2017 TR3)",
    "designation": "2017 TR3",
    "nasa_jpl_url": "http://ssd.jpl.nasa.gov/sbdb.cgi?sstr=3785753",
    "absolute_magnitude_h": 20.7,
    "estimated_diameter": {
        "kilometers": {
            "estimated_diameter_min": 0.1925550782,
            "estimated_diameter_max": 0.4305662442
        },
        "meters": {
            "estimated_diameter_min": 192.5550781879,
            "estimated_diameter_max": 430.566244241
        },
        "miles": {
            "estimated_diameter_min": 0.1196481415,
            "estimated_diameter_max": 0.2675413778
        },
        "feet": {
            "estimated_diameter_min": 631.7424027221,
            "estimated_diameter_max": 1412.6189567557
        }
    },
    "is_potentially_hazardous_asteroid": false,
    "close_approach_data": [
        {
            "close_approach_date": "2017-07-30",
            "close_approach_date_full": "2017-Jul-30 02:50",
            "epoch_date_close_approach": 1501383000000,
            "relative_velocity": {
                "kilometers_per_second": "1.8143905959",
                "kilometers_per_hour": "6531.8061450629",
                "miles_per_hour": "4058.6103238587"
            },
            "miss_distance": {
                "astronomical": "0.3296998359",
                "lunar": "128.2532361651",
                "kilometers": "49322393.189989533",
                "miles": "30647513.9841522354"
            },
            "orbiting_body": "Earth"
        }
    ],
    "orbital_data": {
        "orbit_id": "7",
        "orbit_determination_date": "2019-03-18 06:54:47",
        "first_observation_date": "2017-10-10",
        "last_observation_date": "2017-11-14",
        "data_arc_in_days": 35,
        "observations_used": 48,
        "orbit_uncertainty": "7",
        "minimum_orbit_intersection": ".270097",
        "jupiter_tisserand_invariant": "3.957",
        "epoch_osculation": "2459000.5",
        "eccentricity": ".3118877766873059",
        "semi_major_axis": "1.837385095305203",
        "inclination": "5.045921059437618",
        "ascending_node_longitude": "260.8626532293512",
        "orbital_period": "909.7010804387035",
        "perihelion_distance": "1.26432714301207",
        "perihelion_argument": "71.51929749454486",
        "aphelion_distance": "2.410443047598337",
        "perihelion_time": "2458915.308494274416",
        "mean_anomaly": "33.71320835017619",
        "mean_motion": ".3957343876368598",
        "equinox": "J2000",
        "orbit_class": {
            "orbit_class_type": "AMO",
            "orbit_class_description": "Near-Earth asteroid orbits similar to that of 1221 Amor",
            "orbit_class_range": "1.017 AU < q (perihelion) < 1.3 AU"
        }
    },
    "is_sentry_object": false
}